QIANFAN-57              
1 62787U 25016C   25280.01900106  .00000063  00000+0  78770-4 0  9999
2 62787  88.9751 110.0895 0001765  60.1078 300.0249 13.50974339 38198
QIANFAN-58              
1 62788U 25016D   25279.99014201  .00000049  00000+0  57657-4 0  9992
2 62788  88.9721 109.9447 0013996 169.1416 191.0040 13.50973861 38232
QIANFAN-59              
1 62789U 25016E   25280.01480814  .00000072  00000+0  92538-4 0  9998
2 62789  88.9745 110.0000 0014251 172.9939 187.1414 13.50973181 38230
QIANFAN-60              
1 62790U 25016F   25273.45632892  .00000063  00000+0  77135-4 0  9991
2 62790  88.9732 110.6637 0014892 189.3455 170.7422 13.52524324 37336
QIANFAN-61              
1 62791U 25016G   25280.00655829  .00000078  00000+0  10218-3 0  9990
2 62791  88.9794 110.1025 0014852 169.1288 191.0187 13.50973530 38236
QIANFAN-62              
1 62792U 25016H   25280.01076267  .00000081  00000+0  10596-3 0  9998
2 62792  88.9740 110.0066 0016202 170.0745 190.0729 13.50967503 38225
QIANFAN-63              
1 62793U 25016J   25279.96130373  .00000076  00000+0  98869-4 0  9994
2 62793  88.9747 109.9587 0016106 175.5491 184.5807 13.50970360 38252
QIANFAN-64              
1 62794U 25016K   25280.00245571  .00000081  00000+0  10705-3 0  9997
2 62794  88.9733 109.9375 0014272 167.5334 192.6173 13.50972087 38256
