<?xml version="1.0" encoding="UTF-8"?>
<ndm xmlns:xsi="http://www.w3.org/2001/XMLSchema-instance" xsi:noNamespaceSchemaLocation="https://sanaregistry.org/r/ndmxml_unqualified/ndmxml-2.0.0-master-2.0.xsd">
<omm id="CCSDS_OMM_VERS" version="2.0">
<header><CREATION_DATE/><ORIGINATOR/></header><body><segment><metadata><OBJECT_NAME>QIANFAN-57</OBJECT_NAME><OBJECT_ID>2025-016C</OBJECT_ID><CENTER_NAME>EARTH</CENTER_NAME><REF_FRAME>TEME</REF_FRAME><TIME_SYSTEM>UTC</TIME_SYSTEM><MEAN_ELEMENT_THEORY>SGP4</MEAN_ELEMENT_THEORY></metadata><data><meanElements><EPOCH>2025-10-07T00:27:21.691584</EPOCH><MEAN_MOTION>13.50974339</MEAN_MOTION><ECCENTRICITY>.00017658</ECCENTRICITY><INCLINATION>88.9751</INCLINATION><RA_OF_ASC_NODE>110.0895</RA_OF_ASC_NODE><ARG_OF_PERICENTER>60.1078</ARG_OF_PERICENTER><MEAN_ANOMALY>300.0249</MEAN_ANOMALY></meanElements><tleParameters><EPHEMERIS_TYPE>0</EPHEMERIS_TYPE><CLASSIFICATION_TYPE>U</CLASSIFICATION_TYPE><NORAD_CAT_ID>62787</NORAD_CAT_ID><ELEMENT_SET_NO>999</ELEMENT_SET_NO><REV_AT_EPOCH>3819</REV_AT_EPOCH><BSTAR>.78769586E-4</BSTAR><MEAN_MOTION_DOT>.63E-6</MEAN_MOTION_DOT><MEAN_MOTION_DDOT>0</MEAN_MOTION_DDOT></tleParameters></data></segment></body></omm>
<omm id="CCSDS_OMM_VERS" version="2.0">
<header><CREATION_DATE/><ORIGINATOR/></header><body><segment><metadata><OBJECT_NAME>QIANFAN-58</OBJECT_NAME><OBJECT_ID>2025-016D</OBJECT_ID><CENTER_NAME>EARTH</CENTER_NAME><REF_FRAME>TEME</REF_FRAME><TIME_SYSTEM>UTC</TIME_SYSTEM><MEAN_ELEMENT_THEORY>SGP4</MEAN_ELEMENT_THEORY></metadata><data><meanElements><EPOCH>2025-10-06T23:45:48.269664</EPOCH><MEAN_MOTION>13.50973861</MEAN_MOTION><ECCENTRICITY>.00139963</ECCENTRICITY><INCLINATION>88.9721</INCLINATION><RA_OF_ASC_NODE>109.9447</RA_OF_ASC_NODE><ARG_OF_PERICENTER>169.1416</ARG_OF_PERICENTER><MEAN_ANOMALY>191.0040</MEAN_ANOMALY></meanElements><tleParameters><EPHEMERIS_TYPE>0</EPHEMERIS_TYPE><CLASSIFICATION_TYPE>U</CLASSIFICATION_TYPE><NORAD_CAT_ID>62788</NORAD_CAT_ID><ELEMENT_SET_NO>999</ELEMENT_SET_NO><REV_AT_EPOCH>3823</REV_AT_EPOCH><BSTAR>.57656932E-4</BSTAR><MEAN_MOTION_DOT>.49E-6</MEAN_MOTION_DOT><MEAN_MOTION_DDOT>0</MEAN_MOTION_DDOT></tleParameters></data></segment></body></omm>
<omm id="CCSDS_OMM_VERS" version="2.0">
<header><CREATION_DATE/><ORIGINATOR/></header><body><segment><metadata><OBJECT_NAME>QIANFAN-59</OBJECT_NAME><OBJECT_ID>2025-016E</OBJECT_ID><CENTER_NAME>EARTH</CENTER_NAME><REF_FRAME>TEME</REF_FRAME><TIME_SYSTEM>UTC</TIME_SYSTEM><MEAN_ELEMENT_THEORY>SGP4</MEAN_ELEMENT_THEORY></metadata><data><meanElements><EPOCH>2025-10-07T00:21:19.423296</EPOCH><MEAN_MOTION>13.50973181</MEAN_MOTION><ECCENTRICITY>.00142515</ECCENTRICITY><INCLINATION>88.9745</INCLINATION><RA_OF_ASC_NODE>110.0000</RA_OF_ASC_NODE><ARG_OF_PERICENTER>172.9939</ARG_OF_PERICENTER><MEAN_ANOMALY>187.1414</MEAN_ANOMALY></meanElements><tleParameters><EPHEMERIS_TYPE>0</EPHEMERIS_TYPE><CLASSIFICATION_TYPE>U</CLASSIFICATION_TYPE><NORAD_CAT_ID>62789</NORAD_CAT_ID><ELEMENT_SET_NO>999</ELEMENT_SET_NO><REV_AT_EPOCH>3823</REV_AT_EPOCH><BSTAR>.92538471E-4</BSTAR><MEAN_MOTION_DOT>.72E-6</MEAN_MOTION_DOT><MEAN_MOTION_DDOT>0</MEAN_MOTION_DDOT></tleParameters></data></segment></body></omm>
<omm id="CCSDS_OMM_VERS" version="2.0">
<header><CREATION_DATE/><ORIGINATOR/></header><body><segment><metadata><OBJECT_NAME>QIANFAN-60</OBJECT_NAME><OBJECT_ID>2025-016F</OBJECT_ID><CENTER_NAME>EARTH</CENTER_NAME><REF_FRAME>TEME</REF_FRAME><TIME_SYSTEM>UTC</TIME_SYSTEM><MEAN_ELEMENT_THEORY>SGP4</MEAN_ELEMENT_THEORY></metadata><data><meanElements><EPOCH>2025-09-30T10:57:06.818688</EPOCH><MEAN_MOTION>13.52524324</MEAN_MOTION><ECCENTRICITY>.00148923</ECCENTRICITY><INCLINATION>88.9732</INCLINATION><RA_OF_ASC_NODE>110.6637</RA_OF_ASC_NODE><ARG_OF_PERICENTER>189.3455</ARG_OF_PERICENTER><MEAN_ANOMALY>170.7422</MEAN_ANOMALY></meanElements><tleParameters><EPHEMERIS_TYPE>0</EPHEMERIS_TYPE><CLASSIFICATION_TYPE>U</CLASSIFICATION_TYPE><NORAD_CAT_ID>62790</NORAD_CAT_ID><ELEMENT_SET_NO>999</ELEMENT_SET_NO><REV_AT_EPOCH>3733</REV_AT_EPOCH><BSTAR>.77135464E-4</BSTAR><MEAN_MOTION_DOT>.63E-6</MEAN_MOTION_DOT><MEAN_MOTION_DDOT>0</MEAN_MOTION_DDOT></tleParameters></data></segment></body></omm>
<omm id="CCSDS_OMM_VERS" version="2.0">
<header><CREATION_DATE/><ORIGINATOR/></header><body><segment><metadata><OBJECT_NAME>QIANFAN-61</OBJECT_NAME><OBJECT_ID>2025-016G</OBJECT_ID><CENTER_NAME>EARTH</CENTER_NAME><REF_FRAME>TEME</REF_FRAME><TIME_SYSTEM>UTC</TIME_SYSTEM><MEAN_ELEMENT_THEORY>SGP4</MEAN_ELEMENT_THEORY></metadata><data><meanElements><EPOCH>2025-10-07T00:09:26.636256</EPOCH><MEAN_MOTION>13.50973530</MEAN_MOTION><ECCENTRICITY>.00148526</ECCENTRICITY><INCLINATION>88.9794</INCLINATION><RA_OF_ASC_NODE>110.1025</RA_OF_ASC_NODE><ARG_OF_PERICENTER>169.1288</ARG_OF_PERICENTER><MEAN_ANOMALY>191.0187</MEAN_ANOMALY></meanElements><tleParameters><EPHEMERIS_TYPE>0</EPHEMERIS_TYPE><CLASSIFICATION_TYPE>U</CLASSIFICATION_TYPE><NORAD_CAT_ID>62791</NORAD_CAT_ID><ELEMENT_SET_NO>999</ELEMENT_SET_NO><REV_AT_EPOCH>3823</REV_AT_EPOCH><BSTAR>.10218183E-3</BSTAR><MEAN_MOTION_DOT>.78E-6</MEAN_MOTION_DOT><MEAN_MOTION_DDOT>0</MEAN_MOTION_DDOT></tleParameters></data></segment></body></omm>
<omm id="CCSDS_OMM_VERS" version="2.0">
<header><CREATION_DATE/><ORIGINATOR/></header><body><segment><metadata><OBJECT_NAME>QIANFAN-62</OBJECT_NAME><OBJECT_ID>2025-016H</OBJECT_ID><CENTER_NAME>EARTH</CENTER_NAME><REF_FRAME>TEME</REF_FRAME><TIME_SYSTEM>UTC</TIME_SYSTEM><MEAN_ELEMENT_THEORY>SGP4</MEAN_ELEMENT_THEORY></metadata><data><meanElements><EPOCH>2025-10-07T00:15:29.894688</EPOCH><MEAN_MOTION>13.50967503</MEAN_MOTION><ECCENTRICITY>.00162023</ECCENTRICITY><INCLINATION>88.9740</INCLINATION><RA_OF_ASC_NODE>110.0066</RA_OF_ASC_NODE><ARG_OF_PERICENTER>170.0745</ARG_OF_PERICENTER><MEAN_ANOMALY>190.0729</MEAN_ANOMALY></meanElements><tleParameters><EPHEMERIS_TYPE>0</EPHEMERIS_TYPE><CLASSIFICATION_TYPE>U</CLASSIFICATION_TYPE><NORAD_CAT_ID>62792</NORAD_CAT_ID><ELEMENT_SET_NO>999</ELEMENT_SET_NO><REV_AT_EPOCH>3822</REV_AT_EPOCH><BSTAR>.10595694E-3</BSTAR><MEAN_MOTION_DOT>.81E-6</MEAN_MOTION_DOT><MEAN_MOTION_DDOT>0</MEAN_MOTION_DDOT></tleParameters></data></segment></body></omm>
<omm id="CCSDS_OMM_VERS" version="2.0">
<header><CREATION_DATE/><ORIGINATOR/></header><body><segment><metadata><OBJECT_NAME>QIANFAN-63</OBJECT_NAME><OBJECT_ID>2025-016J</OBJECT_ID><CENTER_NAME>EARTH</CENTER_NAME><REF_FRAME>TEME</REF_FRAME><TIME_SYSTEM>UTC</TIME_SYSTEM><MEAN_ELEMENT_THEORY>SGP4</MEAN_ELEMENT_THEORY></metadata><data><meanElements><EPOCH>2025-10-06T23:04:16.642272</EPOCH><MEAN_MOTION>13.50970360</MEAN_MOTION><ECCENTRICITY>.00161069</ECCENTRICITY><INCLINATION>88.9747</INCLINATION><RA_OF_ASC_NODE>109.9587</RA_OF_ASC_NODE><ARG_OF_PERICENTER>175.5491</ARG_OF_PERICENTER><MEAN_ANOMALY>184.5807</MEAN_ANOMALY></meanElements><tleParameters><EPHEMERIS_TYPE>0</EPHEMERIS_TYPE><CLASSIFICATION_TYPE>U</CLASSIFICATION_TYPE><NORAD_CAT_ID>62793</NORAD_CAT_ID><ELEMENT_SET_NO>999</ELEMENT_SET_NO><REV_AT_EPOCH>3825</REV_AT_EPOCH><BSTAR>.98869122E-4</BSTAR><MEAN_MOTION_DOT>.76E-6</MEAN_MOTION_DOT><MEAN_MOTION_DDOT>0</MEAN_MOTION_DDOT></tleParameters></data></segment></body></omm>
<omm id="CCSDS_OMM_VERS" version="2.0">
<header><CREATION_DATE/><ORIGINATOR/></header><body><segment><metadata><OBJECT_NAME>QIANFAN-64</OBJECT_NAME><OBJECT_ID>2025-016K</OBJECT_ID><CENTER_NAME>EARTH</CENTER_NAME><REF_FRAME>TEME</REF_FRAME><TIME_SYSTEM>UTC</TIME_SYSTEM><MEAN_ELEMENT_THEORY>SGP4</MEAN_ELEMENT_THEORY></metadata><data><meanElements><EPOCH>2025-10-07T00:03:32.173344</EPOCH><MEAN_MOTION>13.50972087</MEAN_MOTION><ECCENTRICITY>.00142721</ECCENTRICITY><INCLINATION>88.9733</INCLINATION><RA_OF_ASC_NODE>109.9375</RA_OF_ASC_NODE><ARG_OF_PERICENTER>167.5334</ARG_OF_PERICENTER><MEAN_ANOMALY>192.6173</MEAN_ANOMALY></meanElements><tleParameters><EPHEMERIS_TYPE>0</EPHEMERIS_TYPE><CLASSIFICATION_TYPE>U</CLASSIFICATION_TYPE><NORAD_CAT_ID>62794</NORAD_CAT_ID><ELEMENT_SET_NO>999</ELEMENT_SET_NO><REV_AT_EPOCH>3825</REV_AT_EPOCH><BSTAR>.10704974E-3</BSTAR><MEAN_MOTION_DOT>.81E-6</MEAN_MOTION_DOT><MEAN_MOTION_DDOT>0</MEAN_MOTION_DDOT></tleParameters></data></segment></body></omm>

</ndm>
